STARLINK-30504
1 57980U 23151S   26061.16668981  .00301928  41215-4  97358-3 0  9996
2 57980  42.9778 252.4864 0026393 290.4003 220.4910 15.89509045  5964
